{
  "type": "FeatureCollection",
  "features": [
    {
      "type": "Feature",
      "properties": {
        "norad_id": 41859,
        "name": "GSAT0207 (GALILEO 15)",
        "group": "gnss",
        "lat": -48.96250045647433,
        "lon": -21.031701501983132,
        "alt_km": 23226.396811543982,
        "timestamp": "2025-12-03T19:33:07.219159+00:00",
        "meta_object_name": "GSAT0207 (GALILEO 15)",
        "meta_object_id": "2016-069A",
        "meta_epoch": "2025-12-02T19:50:13.202016",
        "meta_mean_motion": 1.70474209,
        "meta_eccentricity": 0.0002114,
        "meta_inclination": 55.3769,
        "meta_ra_of_asc_node": 106.5249,
        "meta_arg_of_pericenter": 324.8964,
        "meta_mean_anomaly": 35.0488,
        "meta_ephemeris_type": 0,
        "meta_classification_type": "U",
        "meta_norad_cat_id": 41859,
        "meta_element_set_no": 999,
        "meta_rev_at_epoch": 5605,
        "meta_bstar": 0,
        "meta_mean_motion_dot": 2.6e-07,
        "meta_mean_motion_ddot": 0,
        "tle_line1": "1 41859U 16069A   25336.82654169  .00000026  00000+0  00000+0 0  9995",
        "tle_line2": "2 41859  55.3769 106.5249 0002114 324.8964  35.0488  1.70474209 56053"
      },
      "geometry": {
        "type": "Point",
        "coordinates": [
          -21.031701501983132,
          -48.96250045647433
        ]
      }
    },
    {
      "type": "Feature",
      "properties": {
        "norad_id": 41860,
        "name": "GSAT0212 (GALILEO 16)",
        "group": "gnss",
        "lat": -19.363015735256415,
        "lon": 92.4273888883258,
        "alt_km": 23221.27172882785,
        "timestamp": "2025-12-03T19:33:07.219170+00:00",
        "meta_object_name": "GSAT0212 (GALILEO 16)",
        "meta_object_id": "2016-069B",
        "meta_epoch": "2025-12-02T16:19:30.905184",
        "meta_mean_motion": 1.70474418,
        "meta_eccentricity": 0.00022458,
        "meta_inclination": 55.3738,
        "meta_ra_of_asc_node": 106.5243,
        "meta_arg_of_pericenter": 34.2432,
        "meta_mean_anomaly": 325.7313,
        "meta_ephemeris_type": 0,
        "meta_classification_type": "U",
        "meta_norad_cat_id": 41860,
        "meta_element_set_no": 999,
        "meta_rev_at_epoch": 5630,
        "meta_bstar": 0,
        "meta_mean_motion_dot": 2.7e-07,
        "meta_mean_motion_ddot": 0,
        "tle_line1": "1 41860U 16069B   25336.68021881  .00000027  00000+0  00000+0 0  9991",
        "tle_line2": "2 41860  55.3738 106.5243 0002245  34.2432 325.7313  1.70474418 56308"
      },
      "geometry": {
        "type": "Point",
        "coordinates": [
          92.4273888883258,
          -19.363015735256415
        ]
      }
    },
    {
      "type": "Feature",
      "properties": {
        "norad_id": 41861,
        "name": "GSAT0213 (GALILEO 17)",
        "group": "gnss",
        "lat": 50.35045516615677,
        "lon": -129.94956225388765,
        "alt_km": 23222.23493349301,
        "timestamp": "2025-12-03T19:33:07.219182+00:00",
        "meta_object_name": "GSAT0213 (GALILEO 17)",
        "meta_object_id": "2016-069C",
        "meta_epoch": "2025-12-01T20:59:28.954752",
        "meta_mean_motion": 1.70474717,
        "meta_eccentricity": 0.00020626,
        "meta_inclination": 55.3756,
        "meta_ra_of_asc_node": 106.5542,
        "meta_arg_of_pericenter": 284.0381,
        "meta_mean_anomaly": 75.9044,
        "meta_ephemeris_type": 0,
        "meta_classification_type": "U",
        "meta_norad_cat_id": 41861,
        "meta_element_set_no": 999,
        "meta_rev_at_epoch": 5615,
        "meta_bstar": 0,
        "meta_mean_motion_dot": 3.5e-07,
        "meta_mean_motion_ddot": 0,
        "tle_line1": "1 41861U 16069C   25335.87464068  .00000035  00000+0  00000+0 0  9999",
        "tle_line2": "2 41861  55.3756 106.5542 0002062 284.0381  75.9044  1.70474717 56156"
      },
      "geometry": {
        "type": "Point",
        "coordinates": [
          -129.94956225388765,
          50.35045516615677
        ]
      }
    },
    {
      "type": "Feature",
      "properties": {
        "norad_id": 41862,
        "name": "GSAT0214 (GALILEO 18)",
        "group": "gnss",
        "lat": 17.196722537601065,
        "lon": 118.81300763832127,
        "alt_km": 23220.100894112486,
        "timestamp": "2025-12-03T19:33:07.219195+00:00",
        "meta_object_name": "GSAT0214 (GALILEO 18)",
        "meta_object_id": "2016-069D",
        "meta_epoch": "2025-12-02T14:34:22.700352",
        "meta_mean_motion": 1.70474512,
        "meta_eccentricity": 0.0001109,
        "meta_inclination": 55.3745,
        "meta_ra_of_asc_node": 106.5268,
        "meta_arg_of_pericenter": 291.2976,
        "meta_mean_anomaly": 68.6511,
        "meta_ephemeris_type": 0,
        "meta_classification_type": "U",
        "meta_norad_cat_id": 41862,
        "meta_element_set_no": 999,
        "meta_rev_at_epoch": 5629,
        "meta_bstar": 0,
        "meta_mean_motion_dot": 2.8e-07,
        "meta_mean_motion_ddot": 0,
        "tle_line1": "1 41862U 16069D   25336.60720718  .00000028  00000+0  00000+0 0  9991",
        "tle_line2": "2 41862  55.3745 106.5268 0001109 291.2976  68.6511  1.70474512 56297"
      },
      "geometry": {
        "type": "Point",
        "coordinates": [
          118.81300763832127,
          17.196722537601065
        ]
      }
    },
    {
      "type": "Feature",
      "properties": {
        "norad_id": 42709,
        "name": "SES-15 (WAAS/PRN 133)",
        "group": "gnss",
        "lat": -0.04266729520026234,
        "lon": -123.04327983142134,
        "alt_km": 35785.485469289924,
        "timestamp": "2025-12-03T19:33:07.219206+00:00",
        "meta_object_name": "SES-15 (WAAS/PRN 133)",
        "meta_object_id": "2017-026A",
        "meta_epoch": "2025-12-02T12:16:38.557632",
        "meta_mean_motion": 1.00268611,
        "meta_eccentricity": 3.415e-05,
        "meta_inclination": 0.02,
        "meta_ra_of_asc_node": 343.4979,
        "meta_arg_of_pericenter": 269.9972,
        "meta_mean_anomaly": 233.0968,
        "meta_ephemeris_type": 0,
        "meta_classification_type": "U",
        "meta_norad_cat_id": 42709,
        "meta_element_set_no": 999,
        "meta_rev_at_epoch": 546,
        "meta_bstar": 0,
        "meta_mean_motion_dot": 8.1e-07,
        "meta_mean_motion_ddot": 0,
        "tle_line1": "1 42709U 17026A   25336.51155738  .00000081  00000+0  00000+0 0  9999",
        "tle_line2": "2 42709   0.0200 343.4979 0000341 269.9972 233.0968  1.00268611  5468"
      },
      "geometry": {
        "type": "Point",
        "coordinates": [
          -123.04327983142134,
          -0.04266729520026234
        ]
      }
    },
    {
      "type": "Feature",
      "properties": {
        "norad_id": 42738,
        "name": "QZS-2 (QZSS/PRN 194)",
        "group": "gnss",
        "lat": -39.085468037612024,
        "lon": 143.3904340901715,
        "alt_km": 32634.182154372877,
        "timestamp": "2025-12-03T19:33:07.219219+00:00",
        "meta_object_name": "QZS-2 (QZSS/PRN 194)",
        "meta_object_id": "2017-028A",
        "meta_epoch": "2025-12-02T14:25:21.359424",
        "meta_mean_motion": 1.0028572,
        "meta_eccentricity": 0.075922,
        "meta_inclination": 39.7306,
        "meta_ra_of_asc_node": 246.0318,
        "meta_arg_of_pericenter": 269.3692,
        "meta_mean_anomaly": 274.0368,
        "meta_ephemeris_type": 0,
        "meta_classification_type": "U",
        "meta_norad_cat_id": 42738,
        "meta_element_set_no": 999,
        "meta_rev_at_epoch": 565,
        "meta_bstar": 0,
        "meta_mean_motion_dot": -1.54e-06,
        "meta_mean_motion_ddot": 0,
        "tle_line1": "1 42738U 17028A   25336.60094166 -.00000154  00000+0  00000+0 0  9992",
        "tle_line2": "2 42738  39.7306 246.0318 0759220 269.3692 274.0368  1.00285720  5651"
      },
      "geometry": {
        "type": "Point",
        "coordinates": [
          143.3904340901715,
          -39.085468037612024
        ]
      }
    },
    {
      "type": "Feature",
      "properties": {
        "norad_id": 42917,
        "name": "QZS-3 (QZSS/PRN 199)",
        "group": "gnss",
        "lat": -0.06569027808433202,
        "lon": 133.11144909635664,
        "alt_km": 35789.798966204544,
        "timestamp": "2025-12-03T19:33:07.219231+00:00",
        "meta_object_name": "QZS-3 (QZSS/PRN 199)",
        "meta_object_id": "2017-048A",
        "meta_epoch": "2025-12-03T10:56:06.928800",
        "meta_mean_motion": 1.00275995,
        "meta_eccentricity": 0.0002151,
        "meta_inclination": 0.0735,
        "meta_ra_of_asc_node": 222.2529,
        "meta_arg_of_pericenter": 32.9397,
        "meta_mean_anomaly": 108.3537,
        "meta_ephemeris_type": 0,
        "meta_classification_type": "U",
        "meta_norad_cat_id": 42917,
        "meta_element_set_no": 999,
        "meta_rev_at_epoch": 3029,
        "meta_bstar": 0,
        "meta_mean_motion_dot": -3.29e-06,
        "meta_mean_motion_ddot": 0,
        "tle_line1": "1 42917U 17048A   25337.45563575 -.00000329  00000+0  00000+0 0  9996",
        "tle_line2": "2 42917   0.0735 222.2529 0002151  32.9397 108.3537  1.00275995 30295"
      },
      "geometry": {
        "type": "Point",
        "coordinates": [
          133.11144909635664,
          -0.06569027808433202
        ]
      }
    }
  ]
}